FENGYUN 1C DEB          
1 37453U 99025EHX 17345.75769589  .00000712  00000-0  67694-3 0  9998
2 37453  97.6440 169.7438 0414285 114.8936 249.5857 13.50195158500450
